/**
 * Weather Services Tests
 * 
 * TODO: Implement comprehensive tests with mocked API responses
 * 
 * Test coverage should include:
 * - METAR parsing (various formats)
 * - Flight category determination
 * - Weather scoring and recommendations
 * - Cache behavior (TTL, stale fallback)
 * - Error handling and retries
 * - API client behavior (mocked responses)
 */

import { describe, it, expect } from 'vitest';
import {
  parseMetar,
  flightCategory,
  recommendationForCategory,
  warningsForConditions,
  estimateCeilingFtFromCloudcover,
  scoreHour,
  colorForCategory,
} from '../src/aviation/weather';

describe('METAR Parsing', () => {
  it('should parse wind from METAR', () => {
    const metar = 'KSFO 141756Z 27015KT 10SM FEW015 SCT250 14/09 A3012';
    const parsed = parseMetar(metar);
    
    expect(parsed.wind_direction).toBe(270);
    expect(parsed.wind_speed_kt).toBe(15);
  });

  it('should parse visibility from METAR', () => {
    const metar = 'KSFO 141756Z 27015KT 10SM FEW015 SCT250 14/09 A3012';
    const parsed = parseMetar(metar);
    
    expect(parsed.visibility_sm).toBe(10);
  });

  it('should parse temperature from METAR', () => {
    const metar = 'KSFO 141756Z 27015KT 10SM FEW015 SCT250 14/09 A3012';
    const parsed = parseMetar(metar);
    
    expect(parsed.temperature_f).toBe(57); // 14°C = 57°F
  });

  it('should parse ceiling from METAR', () => {
    const metar = 'KSFO 141756Z 27015KT 10SM BKN020 OVC040 14/09 A3012';
    const parsed = parseMetar(metar);
    
    expect(parsed.ceiling_ft).toBe(2000); // BKN020 = 2000ft
  });

  it('should handle variable wind', () => {
    const metar = 'KSFO 141756Z VRB05KT 10SM FEW015 14/09 A3012';
    const parsed = parseMetar(metar);
    
    expect(parsed.wind_direction).toBeUndefined();
    expect(parsed.wind_speed_kt).toBe(5);
  });

  it('should parse fractional visibility', () => {
    const metar = 'KSFO 141756Z 27015KT 1/2SM FG 14/09 A3012';
    const parsed = parseMetar(metar);
    
    expect(parsed.visibility_sm).toBe(0.5);
  });
});

describe('Flight Category Determination', () => {
  it('should determine VFR conditions', () => {
    const category = flightCategory(10, 5000);
    expect(category).toBe('VFR');
  });

  it('should determine MVFR conditions (low ceiling)', () => {
    const category = flightCategory(10, 2000);
    expect(category).toBe('MVFR');
  });

  it('should determine MVFR conditions (low visibility)', () => {
    const category = flightCategory(4, 5000);
    expect(category).toBe('MVFR');
  });

  it('should determine IFR conditions', () => {
    const category = flightCategory(2, 800);
    expect(category).toBe('IFR');
  });

  it('should determine LIFR conditions', () => {
    const category = flightCategory(0.5, 400);
    expect(category).toBe('LIFR');
  });

  it('should return UNKNOWN for null visibility', () => {
    const category = flightCategory(null, 5000);
    expect(category).toBe('UNKNOWN');
  });

  it('should return UNKNOWN for null ceiling', () => {
    const category = flightCategory(10, null);
    expect(category).toBe('UNKNOWN');
  });
});

describe('Weather Recommendations', () => {
  it('should provide VFR recommendation', () => {
    const rec = recommendationForCategory('VFR');
    expect(rec).toContain('VFR');
    expect(rec).toContain('feasible');
  });

  it('should provide MVFR recommendation', () => {
    const rec = recommendationForCategory('MVFR');
    expect(rec).toContain('Marginal');
  });

  it('should provide IFR recommendation', () => {
    const rec = recommendationForCategory('IFR');
    expect(rec).toContain('not recommended');
  });

  it('should provide LIFR recommendation', () => {
    const rec = recommendationForCategory('LIFR');
    expect(rec).toContain('Low IFR');
  });
});

describe('Weather Warnings', () => {
  it('should warn about low visibility', () => {
    const warnings = warningsForConditions(3, 5000, 10);
    expect(warnings.some(w => w.toLowerCase().includes('visibility'))).toBe(true);
  });

  it('should warn about low ceiling', () => {
    const warnings = warningsForConditions(10, 2000, 10);
    expect(warnings.some(w => w.toLowerCase().includes('ceiling'))).toBe(true);
  });

  it('should warn about high winds', () => {
    const warnings = warningsForConditions(10, 5000, 25);
    expect(warnings.some(w => w.toLowerCase().includes('winds'))).toBe(true);
  });

  it('should provide no warnings for good conditions', () => {
    const warnings = warningsForConditions(10, 5000, 10);
    expect(warnings).toHaveLength(0);
  });
});

describe('Ceiling Estimation', () => {
  it('should estimate low ceiling for high cloud cover', () => {
    const ceiling = estimateCeilingFtFromCloudcover(80);
    expect(ceiling).toBeLessThanOrEqual(2000);
  });

  it('should estimate high ceiling for low cloud cover', () => {
    const ceiling = estimateCeilingFtFromCloudcover(10);
    expect(ceiling).toBeGreaterThan(5000);
  });

  it('should handle null cloud cover', () => {
    const ceiling = estimateCeilingFtFromCloudcover(null);
    expect(ceiling).toBeNull();
  });
});

describe('Weather Scoring', () => {
  it('should score VFR higher than IFR', () => {
    const vfrScore = scoreHour('VFR', 0, 10);
    const ifrScore = scoreHour('IFR', 0, 10);
    expect(vfrScore).toBeGreaterThan(ifrScore);
  });

  it('should penalize precipitation', () => {
    const noPrecip = scoreHour('VFR', 0, 10);
    const withPrecip = scoreHour('VFR', 5, 10);
    expect(noPrecip).toBeGreaterThan(withPrecip);
  });

  it('should penalize high winds', () => {
    const lowWind = scoreHour('VFR', 0, 10);
    const highWind = scoreHour('VFR', 0, 30);
    expect(lowWind).toBeGreaterThan(highWind);
  });
});

describe('Color Codes', () => {
  it('should return green for VFR', () => {
    const color = colorForCategory('VFR');
    expect(color).toBe('#00ff00');
  });

  it('should return red for IFR', () => {
    const color = colorForCategory('IFR');
    expect(color).toBe('#ff0000');
  });

  it('should return magenta for LIFR', () => {
    const color = colorForCategory('LIFR');
    expect(color).toBe('#ff00ff');
  });
});

// TODO: Add integration tests for API clients (mocked)
// TODO: Add cache behavior tests
// TODO: Add error handling tests
// TODO: Add multi-station METAR fetching tests
// TODO: Add departure window calculation tests
